X,Y,OBJECTID,FOLIO,NAME,CAMPUS,ADDRESS,UNIT,CITY,ZIPCODE,PHONE,TYPE,CAPACITY,CAP_DESC,LAT,LON,POINT_X,POINT_Y,CREATEDBY
-80.38458595,25.80840296,1,3.5303E+12,Miami Dade College West,West Campus,3800 NW 115TH AVE,    ,Doral,33178,305-237-8918,C,3096,Enrollment,25.8084,-80.38458,858629.647,536526.1485,abreui
-80.35929205,25.59037216,2,3.66005E+12,Barry University South,South Dade,18958 S DIXIE HWY,    ,Cutler Bay,33157,305-969-5833,U,50,Enrollment,25.59037,-80.35929,867335.4657,457321.5435,bincao
-80.25654384,25.84821203,3,3.03109E+12,Universidad Politecnica De Puerto Rico - Miami,Miami Campus,8180 NW 36TH AVE,Suite 401,Miami,33147,305-592-7659,U,0,Enrollment,25.84821,-80.25654,900673.1348,551212.8787,abreui
-80.13645792,25.81180817,4,2.3222E+11,Talmudic College of Florida,Main Campus,4000 ALTON RD,    ,Miami Beach,33140,305-534-7050,C,40,Enrollment,25.8118,-80.13646,940255.2453,538222.5675,abreui
-80.17513087,25.89104881,5,6.2229E+11,International Academy Training Center, ,1175 NE 125TH ST,Suite 612,North Miami,33161,305-895-4244,T,0,Enrollment,25.89104,-80.17513,927351.2599,566942.6492,abreui
-80.32155049,25.77342719,6,3.04003E+12,New Horizons Computer Learning Centers, ,7757 W FLAGLER ST,Suite 200,Miami,33126,305-265-7576,T,0,Enrollment,25.77342,-80.32155,879433.4456,523915.7705,abreui
-80.18202991,25.89026527,7,6.223E+11,North Miami Nursing School, ,812 NE 125TH ST,    ,North Miami,33161,786-275-4414,T,0,Enrollment,25.89026,-80.18203,925084.8123,566643.6548,abreui
-80.15540938,25.92398832,8,7.2216E+11,SAE Institute - Miami , ,16051 W DIXIE HWY,Suite 200,North Miami Beach,33160,305-944-7494,C,0,Enrollment,25.92398,-80.15541,933758.0618,578956.6051,abreui
-80.36733514,25.74046214,9,3.04017E+12,Security Agency & Training Academy, ,3027 SW 107TH AVE,    ,Miami,33165,305-221-1253,T,0,Enrollment,25.74046,-80.36733,864423.6177,511859.4215,abreui
-80.3073188,25.86015872,10,4.30021E+11,Florida National College (12th Ave),Training Center,4206 W 12TH AVE,   ,Hialeah,33012,305-231-3326,C,160,Enrollment,25.86015,-80.30732,883951.0057,555463.8284,abreui
-80.19492098,25.80352465,11,1.3125E+11,"Assoc. for The Development of The Exceptional, Inc", ,2801 N MIAMI AVE,    ,Miami,33127,305-573-3737,T,0,Enrollment,25.80352,-80.19492,921039.6987,535089.8121,abreui
-80.28698761,25.80662403,12,3.0313E+12,Atlas Air Training Center, ,5600 NW 36TH ST,    ,Miami,33122,786-265-2724,T,0,Enrollment,25.80662,-80.28698,890742.5077,536041.637,abreui
-80.36635462,25.68582507,13,3.05005E+12,Barry University Kendall,South Dade,8900 SW 107TH AVE ,Suite 205,Miami,33176,305-275-2761,U,300,Enrollment,25.68582,-80.36635,864841.6711,492002.8529,abreui
-80.39340322,25.66267525,14,3.05912E+12,American Medical Academy, ,12215 SW 112TH ST,    ,Miami,33186,305-271-6555,T,400,Enrollment,25.66267,-80.3934,855972.3245,483547.2118,abreui
-80.30759518,25.85654141,15,4.30021E+11,Advanced Science Institute Inc, ,3750 W 12TH AVE,    ,Hialeah,33012,305-827-7720,C,149,Enrollment,25.85654,-80.30759,883867.0469,554148.5833,abreui
-80.35395566,25.73350486,16,3.04017E+12,Justilanguage Audio Visual Center, ,9811 SW 40TH ST,    ,Miami,33165,305-553-5222 ,T,486,Enrollment,25.7335,-80.35395,868840.2716,509352.0953,abreui
-80.40077399,25.62258731,17,3.05926E+12,University of Miami South,South Campus,12500 SW 152ND ST,    ,Miami,33177,305-232-7020,U,10368,Enrollment      ,25.62258,-80.40077,853610.3846,468966.1819,abreui
-80.31421513,25.77040818,18,3.04002E+12,A B C Bartending Schools,Miami,7329 W FLAGLER ST,    ,Miami,33144,305-267-1446,T,16,Enrollment,25.7704,-80.31421,881853.1653,522830.9743,abreui
-80.26428497,25.77732376,19,1.4105E+11,Management Resources Institute, ,550 NW 42ND AVE,    ,Miami,33126,305-442-9223,C,0,Enrollment,25.77732,-80.26428,898271.2345,525433.1598,abreui
-80.31879358,25.86499913,20,4.30021E+11,Miami Dade College Hialeah,Hialeah Campus,1780 W 49TH ST,   ,Hialeah,33012,305-237-8700,C,5077,Enrollment,25.86499,-80.31879,880168.3699,557203.4139,abreui
-80.36684488,25.77079272,21,3.04005E+12,Florida International University Engineering,Center For Engineering & Applied Science,10555 W FLAGLER ST,    ,Miami,33174,305-348-2522,U,0,     ,25.77079,-80.36684,864532.0629,522884.0621,abreui
-80.47425104,25.47454935,22,1.07918E+12,Miami Dade College Homestead,Homestead Campus,500 COLLEGE TER,    ,Homestead,33030,305-237-5000,C,4651,Enrollment,25.47454,-80.47425,829612.4372,415060.0937,abreui
-80.23815945,25.76640352,23,1.41031E+11,Miami Dade College Interamerican,Interamerican Center,627 SW 27TH AVE,    ,Miami,33135,305-237-6000,C,8985,Enrollment,25.7664,-80.23816,906891.6877,521512.9066,abreui
-80.37323191,25.67516924,24,3.05006E+12,Miami Dade College Kendall,Kendall Campus,11011 SW 104TH ST,   ,Miami,33176,305-237-2000,C,33401,Enrollment,25.67516,-80.37323,862595.1249,488119.1566,abreui
-80.21334066,25.78690967,25,1.31351E+11,UM Epidemiology and Public Health, ,1120 NW 14TH ST,Suite 912,Miami,33136,305-243-8331,U,0,Enrollment,25.7869,-80.21334,915015.4404,529014.1766,abreui
-80.26759464,25.84473392,26,4.3108E+11,University of Florida Dental School Clinic,Dental School-Clinic,750 E 25TH ST,    ,Hialeah,33013,305-694-5400,U,0,       ,25.84473,-80.26759,897045.7044,549928.2943,abreui
-80.19096896,25.76317964,27,1.021E+11,Florida International University Brickell,Downtown Miami Campus,1101 BRICKELL AVE,    ,Miami,33131,305-779-7870,U,0,Enrollment,25.76317,-80.19097,922430.0434,520433.6941,abreui
-80.27592811,25.72228145,28,3.413E+11,UM School of Communication, ,5100 BRUNSON DR,    ,Coral Gables,33146,305-284-2265,U,0,Enrollment,25.72228,-80.27593,894549.5132,505406.1922,abreui
-80.13240342,25.78100511,29,2.3234E+11,Florida International University Wolfsonian,The Wolfsonian-FIU,1001 WASHINGTON AVE,    ,Miami Beach,33139,305-531-1001,U,0,       ,25.781,-80.1324,941662.9379,527035.313,abreui
-80.33392283,25.76107449,30,3.0401E+12,Florida Atlantic University,Small Business Development Center,8500 SW 8TH ST,Suite 224,Miami,33144,786-388-9040,U,0,     ,25.76107,-80.33392,875384.4999,519405.2914,abreui
-80.18326869,25.87402693,31,3.02231E+12,Miami Country Day School, ,601 NE 107TH ST,    ,Miami,33161,305-779-7200,T,1120,Enrollment,25.87402,-80.18327,924714.2625,560738.9247,emilym
-80.20027937,25.87893621,32,1.12136E+12,Barry University Main,Main Campus,11300 N Miami Ave,,Miami Shores,33161,305-899-3000,U,600,Enrollment,25.87893,-80.20028,919109.9377,562488.8751,abreui
-80.29323422,25.86572848,33,4.3001E+11,Nouvelle Institute,Hialeah,500 W 49TH ST,2nd Floor,Hialeah,33012,305-557-3017,C,0,Enrollment,25.86572,-80.29323,888571.872,557512.9197,abreui
-80.16296889,25.73223835,34,3.0422E+12,UM School of Marine and Atmospheric Science,Marine Campus,4600 RICKENBACKER CSWY,    ,Miami,33149,305-361-4000,U,200,Enrollment,25.73223,-80.16297,931716.9999,509245.0937,abreui
-80.4198365,25.72308279,35,3.04922E+12,Professional Training Center (PTC), ,13926 SW 47TH ST,    ,Miami,33175,305-220-4120,T,0,Enrollment,25.72308,-80.41983,847168.984,505463.3916,abreui
-80.38601121,25.73089978,36,3.04913E+12,Nursing Unlimited inc,Kendall Regional Medical Center,11750 SW 40TH ST,    ,Miami,33175,305-223-3000,C,0,Enrollment,25.7309,-80.38601,858291.9861,508354.8847,abreui
-80.46263319,25.5375516,37,3.06919E+12,Coconut Palm Equestrian Center, ,24650 SW 167TH AVE,    ,Homestead,33031,305-246-4649,T,0,Enrollment,25.53755,-80.46263,833352.7633,437972.9846,abreui
-80.24593498,25.75077986,38,1.41091E+11,CCLS Language Studies, ,3191 CORAL WAY,    ,Miami,33145,305-529-8563,T,0,Enrollment,25.75078,-80.24593,904365.1223,515819.5659,abreui
-80.40317937,25.65616023,39,3.05914E+12,CCI School of Council, ,12002 SW 128TH CT,Suite 103,Miami,33186,305-480-5800,T,0,Enrollment,25.65616,-80.40318,852762.8024,481164.6795,abreui
-80.19320851,25.77638429,40,1.01091E+11,New World School of the Arts ,             ,25 NE 2ND ST,    ,Miami,33132,305-237-3135,C,0,       ,25.77638,-80.19321,921663.5625,525228.6247,abreui
-80.16515036,25.92911024,41,7.2217E+11,Nova Southeastern University,        ,1750 NE 167TH ST,   ,North Miami Beach,33162,954-678-2273,U,130,Enrollment,25.92911,-80.16515,930544.5036,580797.7819,abreui
-80.27812113,25.7198567,42,3.413E+11,University of Miami Coral Gables,Coral Gables,1306 STANFORD DR,    ,Coral Gables,33146,305-284-2211,U,13000,Enrollment,25.71985,-80.27812,893832.3125,504520.9373,abreui
-80.16503394,25.89409986,43,6.2229E+11,Johnson & Wales University, ,1701 NE 127TH ST,    ,North Miami,33181,305-892-7000,U,2000,Enrollment,25.8941,-80.16503,930663.8098,568072.625,abreui
-80.3362452,25.74294629,44,3.04016E+12,St. John Vianney College Seminary, ,2900 SW 87TH AVE,      ,Miami,33165,305-223-4561,C,70,Enrollment,25.74294,-80.33624,874653.3127,512812.594,abreui
-80.25929806,25.91667664,45,3.42116E+12,Marian Center School and Services, ,15701 NW 37TH AVE,    ,Opa-locka,33054,305-200-8927,T,0,Enrollment,25.91667,-80.2593,899626.8644,576092.4927,bincao
-80.21150065,25.79026516,46,1.31351E+11,University of Miami Medical,Medical Campus,1600 NW 10TH AVE,Suite 1140,Miami,33136,305-243-6545,U,750,Enrollment,25.79026,-80.2115,915613.6092,530237.4056,abreui
-80.36725967,25.75599414,47,3.04008E+12,Florida Career College Miami,Miami,1321 SW 107TH AVE,Suite 201,Miami,33174,888-852-7272,C,275,Enrollment,25.75599,-80.36726,864421.3747,517504.7504,abreui
-80.18919248,25.76496808,48,1.4207E+11,Open Hearts Language Academy, ,825 BRICKELL BAY DR,    ,Miami,33131,305-379-4027,T,0,Enrollment,25.76496,-80.18919,923010.7305,521087.322,abreui
-80.19122712,25.77764284,49,1.0108E+11,Miami Dade College Wolfson,Wolfson Campus,300 NE 2ND AVE,    ,Miami,33132,305-237-3000,C,18941,Enrollment,25.77764,-80.19122,922312.8123,525690.0627,abreui
-80.29495807,25.90216412,50,3.22024E+12,Plumbers Joint Apprentice, ,14105 NW 58TH CT,    ,Hialeah,33014,305-352-0519,T,0,Enrollment,25.90216,-80.29496,887933.8603,570753.019,abreui
-80.30885818,25.86536437,51,4.3002E+11,South Florida Institute of Technology,Satelitte Campus,1275 W 47TH PL,    ,Hialeah,33012,305-820-8993,C,0,Enrollment,25.86536,-80.30886,883434.8208,557353.2338,abreui
-80.23959851,25.78007895,52,1.3133E+11,South Florida Institute of Technology,Main Campus,720 NW 27TH AVE,    ,Miami,33125,305-649-2050,C,0,Enrollment,25.78007,-80.2396,906389.386,526480.7003,abreui
-80.39458143,25.64594567,53,3.05913E+12,Top Gun Cheerleading Training Center, ,13135 SW 124TH AVE,Suite 101,Miami,33186,305-259-5727,T,0,Enrollment,25.64594,-80.39458,855612.0455,477465.0527,abreui
-80.21363023,25.78745751,54,1.31351E+11,UM ALS Clinical and Research Center, ,1150 NW 14TH ST,Suite 609,Miami,33136,305-243-7400,T,0,Enrollment,25.78745,-80.21363,914918.9663,529212.7266,abreui
-80.21303623,25.78712066,55,1.31351E+11,UM Center for Complem. and Integrat. Medicine, ,1120 NW 14TH AVE,Suite 1472,Miami,33136,305-243-4751,U,0,Enrollment,25.78712,-80.21303,915115.1585,529091.463,abreui
-80.3565266,25.79422106,56,3.53032E+12,Carlos Albizu University,Main Campus,2173 NW 99TH AVE,    ,Miami,33172,305-593-1223,U,1073,Enrollment,25.79422,-80.35652,867886.1872,531415.7495,abreui
-80.27066455,25.9183909,57,3.42117E+12,Florida Memorial University,Main Campus,15800 NW 42ND AVE,   ,Miami Gardens,33054,305-626-3600,U,1200,Enrollment,25.91839,-80.27066,895887.2501,576694.6252,abreui
-80.21348541,25.78714131,58,1.31351E+11,UM Ear Institute, ,1120 NW 14TH ST,5th Floor,Miami,33136,305-243-2000,U,0,Enrollment,25.78714,-80.21348,914967.3062,529098.084,abreui
-80.13853274,25.77478341,59,2.4204E+11,Beauty Schools of America,Miami Beach Campus,1011 5TH ST,    ,Miami Beach,33139,305-824-2500,T,0,Enrollment,25.77478,-80.13853,939660.6889,524760.6708,abreui
-80.31392569,25.84663824,60,2.23011E+12,Contractors Exam School, ,7911 NW 72ND AVE,Suite 217,Miami,33166,305-620-2277,T,0,Enrollment,25.84663,-80.31392,881803.9738,550538.2117,abreui
-80.36091353,25.5954941,61,3.06005E+12,International Gymnastics Training Center, , 18640 SW 104TH AVE,    ,Cutler Bay,33157,305-259-0677,T,0,Enrollment,25.59549,-80.36091,866792.0665,459180.53,abreui
-80.32888097,25.76936456,62,3.04003E+12,CBT College - Flagler Campus,Flagler Campus,8230 W FLAGLER ST,   ,Miami,33144,305-273-4499,C,0,               ,25.76936,-80.32888,877028.5626,522426.8123,abreui
-80.27528223,25.72209434,63,3.413E+11,UM School of Business Administration, ,5202 UNIVERSITY DR,    ,Coral Gables,33146,305-284-4643,U,0,Enrollment,25.72209,-80.27528,894762.5303,505339.3504,abreui
-80.22886536,25.86720382,64,3.03103E+12,W.H.Turner Technical Arts H.S, ,10151 NW 19TH AVE,    ,Miami,33147,305-691-8324,T,0,Enrollment,25.8672,-80.22886,909735.7609,558168.2654,abreui
-80.4027322,25.72997984,65,3.04914E+12,Genesis Vocational Institute Corp, ,12861 SW 42ND ST,    ,Miami,33194,305-223-0506,C,0,Enrollment,25.72998,-80.40273,852788.8452,507995.2654,abreui
-80.29439992,25.86557937,66,4.3001E+11,Everest Institute - Hialeah,Hialeah Campus,530 W 49TH ST,   ,Hialeah,33012,305-558-9500,C,0,     ,25.86557,-80.2944,888188.8389,557456.6611,abreui
-80.17040281,25.96378966,67,3.01232E+12,Sheet Metal Workers Apprentice, ,20401 NE 15TH CT,    ,Miami,33179,305-651-8692,T,0,Enrollment,25.96378,-80.1704,928738.3268,593391.9687,abreui
-80.24952869,25.77948391,68,1.3133E+11,Nouvelle Institute,Miami,3271 NW 7TH ST,Suite 106,Miami,33125,305-643-3360,C,0,Enrollment,25.77948,-80.24953,903122.8216,526245.6851,abreui
-80.21125164,25.78813208,69,1.31351E+11,UM Environmental Health & Safety, ,1400 NW 10TH AVE,Suite 405,Coral Gables,33136,305-243-3400,U,0,Enrollment,25.78813,-80.21125,915700.1902,529462.5921,abreui
-80.34675927,25.60764513,70,3.35033E+12,"Nursing Unlimited, inc",Gramercy Park Nursing Center,17475 S DIXIE HWY,    ,Miami,33157,305-255-1045,C,0,Enrollment,25.60764,-80.34676,871435.2686,463619.5564,abreui
-80.31578754,25.76961223,71,3.04002E+12,La Belle Beauty Academy, ,7390 W FLAGLER ST,    ,Miami,33144,305-262-0088,T,0,Enrollment,25.76961,-80.31578,881337.186,522538.9886,abreui
-80.24169287,25.77974409,72,1.3133E+11,Security School, ,2853 NW 7TH ST,    ,Miami,33125,786-953-4192,T,0,Enrollment,25.77974,-80.24169,905700.8796,526355.0196,abreui
-80.16386023,25.69535903,73,2.44232E+12,Inlingua Language Center Key Biscayne,Key Biscayne,328 CRANDON BLVD,  ,Miami,33149,305-365-0018,T,0,Enrollment,25.69535,-80.16386,931508.4408,495838.8729,abreui
-80.35392354,25.81195036,74,3.5302E+12,Inlingua Language Center Doral,Doral,9763 NW 41ST ST,Suite 101,Miami,33178,305-591-1361,T,0,Enrollment,25.81195,-80.35392,868711.0522,537863.837,abreui
-80.40384299,25.64840475,75,3.05914E+12,Cise Electronics Corporation, ,12920 SW 128TH ST,Suite 4,Miami,33186,786-293-1094,T,0,Enrollment,25.6484,-80.40384,852556.8941,478344.9588,abreui
-80.27943002,25.71724084,76,3.413E+11,UM School of Architecture, ,1223 DICKINSON DR,    ,Coral Gables,33146,305-284-3731,U,0,Enrollment,25.71724,-80.27943,893406.5589,503567.8247,abreui
-80.20468047,25.75814245,77,1.4138E+11,Keyes Real State License Exam School, ,2121 SW 3RD AVE,Suite 5,Miami,33129,305-371-3592,T,0,Enrollment,25.75814,-80.20468,917928.2711,518575.3829,abreui
-80.31327092,25.74850455,78,3.04011E+12,Real Estate Learning Center Inc, ,7281 CORAL WAY,    ,Miami,33155,305-261-7111,T,0,Enrollment,25.7485,-80.31327,882205.377,514871.504,abreui
-80.26637333,25.77937762,79,1.3132E+11,Olga P Gonzalez Sewing School, ,4315 NW 7TH ST,Suite 44,Miami,33126,305-442-0858,T,0,Enrollment,25.77937,-80.26637,897579.8348,526175.8299,abreui
-80.19578969,25.92947797,80,7.2207E+11,Union Institute & University, ,16853 NE 2ND AVE,    ,North Miami Beach,33162,305-653-7141,U,0,Enrollment,25.92947,-80.19579,920473.5201,580868.4558,abreui
-80.29000143,25.81016741,81,2.63025E+12,Aeroservice Aviation Center LLC, ,3814 CURTISS PKWY,    ,Miami Springs,33166,305-871-5557,T,0,Enrollment,25.81016,-80.29,889744.0097,537324.1619,abreui
-80.30675951,25.84862962,82,4.3011E+11,Compu-Med Vocational Career, , 2900 W 12TH AVE,Suite 28,Hialeah,33012,305-888-9200,T,0,Enrollment,25.84862,-80.30676,884157.0401,551274.3791,abreui
-80.17016877,25.89434257,83,6.2229E+11,PRC Career Center Corp, ,12875 NE 14TH AVE,    ,North Miami,33161,305-891-6184,T,0,Enrollment,25.89434,-80.17017,928975.0958,568150.1349,abreui
-80.28741496,25.84697507,84,4.3107E+11,US K-9 Academy & Police Dog Training Center Inc, ,240 W 28TH ST,    ,Hialeah,33010,305-805-0030,T,0,Enrollment,25.84697,-80.28741,890522.4419,550707.0373,abreui
-80.208878,25.7948422,85,1.3135E+11,Lindsey Hopkings Tech. Education Center, ,750 NW 20TH ST,    ,Miami,33136,305-324-6070,T,0,Enrollment,25.79484,-80.20888,916466.5997,531906.1838,abreui
-80.32006079,25.68727109,86,3.05003E+12,"Sullivan & Cogliano Training Center, Inc",South Miami Campus,7740 N KENDALL DR,    ,Miami,33156,305-279-5877,T,0,Enrollment,25.68727,-80.32006,880085.0283,492604.1685,abreui
-80.2258387,25.77296646,87,1.4103E+11,Vocational Institute of Florida, ,1849 W FLAGLER ST,    ,Miami,33135,305-643-6111,T,0,Enrollment,25.77296,-80.22584,910932.6218,523921.9316,abreui
-80.27098514,25.8305397,88,4.3117E+11,Sheepdog Firearms & Training, ,527 E 9TH ST,    ,Hialeah,33010,305-887-4889,T,0,Enrollment,25.83054,-80.27098,895959.1854,544762.983,abreui
-80.24198177,25.76459804,89,1.41091E+11,La Belle Beauty Academy, ,2960 SW 8TH ST,    ,Miami,33135,305-649-2800,T,0,Enrollment,25.76459,-80.24198,905637.4761,520849.4294,abreui
-80.31252922,25.86692388,90,4.3002E+11,La Belle Beauty Academy, ,1495 W 49TH ST,    ,Hialeah,33012,305-558-0562,T,0,Enrollment,25.86692,-80.31253,882224.6743,557913.7261,abreui
-80.33214351,25.74814063,91,3.0401E+12,International Models School, , 8415 CORAL WAY,Suite 205,Miami,33155,305-266-6331,T,0,Enrollment,25.74814,-80.33214,875993.9281,514707.3332,abreui
-80.25494494,25.77988491,92,1.3133E+11,Hi Tech School of Miami, ,801 NW 37TH AVE,    ,Miami,33125,305-643-2996,T,0,Enrollment,25.77988,-80.25494,901339.6277,526381.319,abreui
-80.22561009,25.76536557,93,3.03131E+12,The Praxis Institute,Main Campus,1850 SW 8TH ST,    ,Miami,33135,305-974-1966,C,0,Enrollment,25.76536,-80.22561,911024.0937,521159.7198,abreui
-80.47716453,25.47328633,94,1.07918E+12,Dade Medical College - Homestead Campus,Homestead Campus,381 N KROME AVE,    ,Homestead,33030,786-454-9070,C,0,Enrollment,25.47328,-80.47716,828653.0592,414597.279,abreui
-80.25919237,25.75260047,95,3.4108E+11,Inlingua Language Center Coral Gables,Coral Gables,201 ALHAMBRA CIR,Suite 104,Miami,33134,305-446-0030,T,0,Enrollment,25.7526,-80.25919,899997.6358,516456.5543,abreui
-80.13986566,25.9124724,96,6.2222E+11,Florida International University Biscayne Bay,Biscayne Bay Campus,3000 NE 151ST ST,   ,North Miami,33181,305-919-5500,U,7000,Enrollment,25.91247,-80.13986,938894.4996,574804.0621,abreui
-80.24701856,25.87764197,97,3.02133E+12,Miami Dade College North,North Campus,11380 NW 27TH AVE,    ,Miami,33167,305-237-1000,C,25671,Enrollment,25.87764,-80.24702,903744.5629,561927.5621,abreui
-80.32008131,25.85575038,98,4.3011E+11,Florida Career College Hialeah,Hialeah,3750 W 18TH AVE,    ,Hialeah,33012,305-825-3231,C,0,         ,25.85575,-80.32008,879762.3129,553839.6251,abreui
-80.3658896,25.81277763,99,3.5302E+12,San Ignacio Culinary Arts School, ,10395 NW 41ST ST,    ,Doral,33178,305-629-2929,T,0,Enrollment,25.81277,-80.36589,864772.9592,538145.3659,abreui
-80.36062035,25.70056876,100,3.04032E+12,Frank Alonso Professor - Auto-CAD Classes, ,10300 SW 72ND ST,  ,Miami,33173,305-382-2228,T,0,Enrollment,25.70056,-80.36062,866704.2211,497370.6046,abreui
-80.13535617,25.93094118,101,7.221E+11,Gold Coast School of Real Estate - NORTH DADE, ,3577 NE 163RD ST,    ,North Miami,33160,305-940-4660,T,0,Enrollment,25.93094,-80.13535,940332.555,581526.7962,abreui
-80.36862537,25.74583972,102,3.04018E+12,Guadalupe Vocational Institute, ,2500 SW 107TH AVE,Suite 31,Miami,33165,305-559-7728,C,0,Enrollment,25.74584,-80.36862,863989.5436,513811.9026,abreui
-80.16117044,25.70022094,103,2.44232E+12,The Pankey Institute , ,1 CRANDON BLVD,    ,Key Biscayne,33149,305-361-5433,C,0,Enrollment,25.70022,-80.16117,932383.0077,497611.6207,abreui
-80.50105377,25.5105885,104,3.06835E+12,UF Tropical Research and Educational Center, ,18905 SW 280TH ST,    ,Homestead,33031,305-246-7001,U,0,    ,25.51058,-80.50105,820720.9668,428124.1116,abreui
-80.21082966,25.790867,105,1.31351E+11,UM Batchelor Children’s Research Institute, ,1580 NW 10TH AVE,    ,Miami,33136,305-243-1423,U,0,Enrollment,25.79086,-80.21083,915833.0885,530457.4762,abreui
-80.28013441,25.72065164,106,3.413E+11,UM College of Arts & Sciences, ,1252 MEMORIAL DR,Suite 227,Coral Gables,33146,305-284-4117,U,0,Enrollment,25.72065,-80.28013,893167.8817,504806.2467,abreui
-80.21195017,25.79038876,107,1.31351E+11,UM Department of Microbiology & Immunology, ,1600 NW 10TH AVE,    ,Miami,33136,305-243-6655,U,0,Enrollment,25.79038,-80.21195,915465.4269,530281.4445,abreui
-80.21363309,25.78742284,108,1.31351E+11,UM Clinical Enterprise Technologies, ,1150 NW 14TH ST,Suite 100,Miami,33136,305-243-7339,U,0,Enrollment,25.78742,-80.21363,914918.0974,529200.122,abreui
-80.2131995,25.7865888,109,1.31351E+11,UM Otolaryngology Department, ,1120 NW 14TH ST,    ,Miami,33136,305-243-2000,U,0,Enrollment,25.78658,-80.2132,915062.5871,528897.8262,abreui
-80.18864517,25.78995127,110,1.32311E+11,Miami International University of Art & Design , ,1501 BISCAYNE BLVD,Suite 100,Miami,33132,305-428-5700,U,0,      ,25.78995,-80.18864,923134.9378,530168.9998,abreui
-80.3078732,25.85983518,111,1.41101E+11,The Praxis Institute - Hialeah,Hialeah Campus,4162 W 12TH AVE,    ,Hialeah,33012,305-556-1424,C,0,Enrollment,25.85983,-80.30787,883769.3086,555345.2735,abreui
-80.19252077,25.76059379,112,1.02091E+11,TALK International School of Languages,Miami Downtown,1390 BRICKELL AVE,    ,Miami,33131,305-375-0126,T,0,Enrollment,25.76059,-80.19252,921925.056,519490.6932,abreui
-80.27996666,25.72150199,113,3.413E+11,UM Center for Computational Science, ,1365 MEMORIAL DR,Suite 313,Coral Gables,33146,305-243-4962,U,0,Enrollment,25.7215,-80.27996,893221.4264,505115.6158,abreui
-80.34428955,25.7325714,114,3.04021E+12,Natural Healing Center, ,9230 SW 40TH ST,    ,Miami,33165,305-228-0380,T,0,Enrollment,25.73257,-80.34429,872024.0506,509028.519,abreui
-80.38251128,25.7913721,115,2.53031E+12,Strayer University - Doral Campus,Doral Campus,11430 NW 20TH ST,Suite 150,Miami,33172,305-507-5700,U,0,Enrollment,25.79137,-80.38251,859341.2323,530339.3304,abreui
-80.33523828,25.80918607,116,3.53027E+12,Connecticut Broadcasting School (CBS), ,8600 NW 36TH ST,Suite 100,Doral,33166,305-592-7133,T,0,Enrollment,25.80918,-80.33524,874863.2929,536889.7445,abreui
-80.25141048,25.74022344,117,1.4116E+11,The English Center, ,3501 SW 28TH ST,    ,Miami,33133,305-445-7731,T,0,Enrollment,25.74022,-80.25141,902584.5952,511972.4381,abreui
-80.34097728,25.70239854,118,3.04028E+12,Medvance Institute, ,9035 SW 72ND ST,Suite 200,Miami,33173,305-596-5553,C,0,Enrollment,25.70239,-80.34097,873169.2003,498067.4323,abreui
-80.2757233,25.71942647,119,3.413E+11,UM Behavioral Medicine Research Program, ,1251 STANFORD DR,    ,Miami,33146,305-284-2211,U,0,Enrollment,25.71942,-80.27572,894622.635,504368.892,abreui
-80.32546258,25.78358371,120,3.53034E+12,ITT Technical Institute, ,7955 NW 12TH ST,Suite 119,Miami,33126,305-477-3080,T,0,Enrollment,25.78358,-80.32546,878127.1068,527600.648,abreui
-80.17701209,25.89088188,121,6.2229E+11,SEGAL Institute,Headquarters,1065 NE 125TH ST,Suite 221,North Miami,33161,305 722-8444,C,0,Enrollment,25.89088,-80.17701,926733.1453,566878.0912,abreui
-80.38037438,25.7917148,122,2.53031E+12,Gold Coast School of Real Estate - DORAL, , 11250 NW 20TH ST,    ,Miami,33172,305-663-0313,T,0,Enrollment,25.79171,-80.38037,860043.7749,530467.1927,abreui
-80.26363629,25.80419159,123,3.03129E+12,George T. Baker Aviation Center, ,3275 NW 42ND AVE,    ,Miami,33142,305-871-3143,T,0,Enrollment,25.80419,-80.26363,898430.0979,535199.8342,abreui
-80.25794755,25.78168159,124,1.3132E+11,Key Power Tech. Inst. Comm. Truck Driving School, ,3790 NW 11TH ST,    ,Miami,33126,305-649-5344,C,0,Enrollment,25.78168,-80.25794,900347.8566,527028.7666,abreui
-80.41742142,25.68307648,125,3.05903E+12,Everest Institute - Kendall,Kendall Campus,9020 SW 137TH AVE,    ,Miami,33186,305-386-9900,C,0,Enrollment,25.68307,-80.41742,848028.2178,490926.5038,abreui
-80.21070694,25.79111027,126,1.31351E+11,UM Bascom Palmer Eye Institute, ,900 NW 17TH ST,    ,Miami,33136,305-243-2020,U,0,Enrollment,25.79111,-80.2107,915872.9416,530546.1364,abreui
-80.3052105,25.73270795,127,3.04023E+12,Florida Vocational Institute Corp, ,6840 BIRD RD,    ,Miami,33155,305-665-1911,C,0,Enrollment,25.7327,-80.30521,884888.7923,509143.9804,abreui
-80.32255062,25.77256306,128,3.04003E+12,Technical Career Institute, ,7757 W FLAGLER ST,Suite 230,Miami,33144,305-261-5511,C,0,Enrollment,25.77256,-80.32255,879105.9246,523600.0006,abreui
-80.28015005,25.72180572,129,3.413E+11,UM College of Engineering, ,1251 MEMORIAL DR,Suite 244,Coral Gables,33146,305-284-2404,U,0,Enrollment,25.7218,-80.28015,893160.4451,505225.6797,abreui
-80.16362892,25.92628612,130,7.2216E+11,Beauty Schools of America,North Miami Beach Campus,1813 NE 163RD ST,    ,North Miami Beach,33162,305-947-0832,T,0,Enrollment,25.92628,-80.16363,931051.1063,579774.4734,abreui
-80.45971127,25.68552186,131,3.04932E+12,CBT College - West Kendall Campus,West Kendall Campus, 8765 SW 165TH AVE,    ,Kendall,33193,305-273-4499,C,0,Enrollment,25.68552,-80.45971,834097.0021,491756.1255,abreui
-80.27537868,25.7217181,132,3.413E+11,UM School of Education, ,5202 UNIVERSITY DR,    ,Coral Gables,33146,305-284-3711,U,0,Enrollment,25.72171,-80.27538,894731.5289,505202.428,abreui
-80.30209325,25.86741082,133,4.3001E+11,CBT College - Hialeah Campus,Hialeah Campus,935 W 49TH ST,     ,Hialeah,33012,305-273-4499,C,0,        ,25.86741,-80.30209,885655.437,558108.8122,abreui
-80.27734811,25.92433359,134,3.42118E+12,"Sullivan & Cogliano Training Center, Inc", ,4760 NW 167TH ST,    ,Miami,33014,305-624-3030,T,0,Enrollment,25.92433,-80.27735,893678.5003,578842.4447,abreui
-80.20332771,25.9353473,135,3.42112E+12,Hebron Technical Institute of Health, ,160 NW 176TH ST,Suite 407,Miami Gardens,33169,305-493-1761,C,0,Enrollment,25.93534,-80.20333,917983.0553,582986.6695,abreui
-80.3286865,25.80933809,136,3.53027E+12,Polytechnic University of Puerto Rico, ,8180 NW 36TH ST,Suite 401,Doral,33166,305-592-7659,C,0,        ,25.80933,-80.32868,877018.4998,536955.9377,abreui
-80.28693947,25.80679649,137,3.0313E+12,Embry Riddle Aeronautical University ,Main Campus,5600 NW 36TH ST,Suite 590,Miami,33166,305-871-3855,U,15,Enrollment,25.80679,-80.28694,890758.0067,536104.4033,abreui
-80.21040132,25.79492495,138,1.3135E+11,Miami Dade College Medical Center,Medical Center Campus,950 NW 20TH ST,    ,Miami,33127,305-237-4000,C,2899,Enrollment,25.79492,-80.2104,915965.1878,531933.2504,abreui
-80.38962552,25.74617972,139,3.04912E+12,Florida National College (26th St),South Campus,11865  SW 26TH ST,Suite H-3,Miami,33175,305-226-9999,C,0,     ,25.74618,-80.38962,857076.4377,513902.938,abreui
-80.37621011,25.75737903,140,3.04007E+12,Florida International University MMC,Modesto A. Maidique Campus,11200 SW 8TH ST,    ,Miami,33174,305-348-2000,U,38000,Enrollment,25.75737,-80.37621,861473.0626,517994.0627,abreui
-80.25577156,25.92272798,141,3.42116E+12,St. Thomas University,Main Campus,16401 NW 37TH AVE,   ,Miami Gardens,33054,305-625-6000,U,3872,Enrollment,25.92272,-80.25577,900773.5316,578298.5412,abreui
-80.30447751,25.75991341,142,3.04011E+12,Beauty Schools of America,Miami Campus,1176 SW 67TH AVE,    ,Miami,33144,305-267-6604,T,0,Enrollment,25.75991,-80.30447,885077.9522,519033.3367,abreui
-80.41322126,25.71420991,143,3.04926E+12,Academy of Real Estate & Mortgage, ,5600 SW 135TH AVE,204,Miami,33183,305-408-8048,T,0,Enrollment,25.71421,-80.41322,849361.2351,502248.1388,abreui
-80.23935182,25.78963582,144,1.3134E+11,Center of Cinematography Arts & Television, ,1637 NW 27TH AVE,    ,Miami,33125,305-634-0550,T,0,Enrollment,25.78963,-80.23935,906450.5039,529954.7565,abreui
-80.32306598,25.88484184,145,4.2026E+11,American Advanced Technicians Institute (AATI ), ,6801 W 20TH AVE,    ,Hialeah,33169,305-362-5519,T,0,Enrollment,25.88484,-80.32306,878726.2494,564408.2794,abreui
-80.19125222,25.76185711,146,1.02101E+11,Strayer University - Brickell Campus,Brickell Campus,1201 BRICKELL AVE,Suite 700,Miami,33131,305-507-5800,U,0,Enrollment,25.76185,-80.19125,922339.7617,519952.4258,abreui
-80.22769823,25.92786366,147,3.42111E+12,ATI Career Training Center College of Health, ,1525 NW 167TH ST,Suite 300,Miami,33169,305-623-3255,T,0,Enrollment,25.92786,-80.2277,909989.7474,580218.6057,abreui
-80.31462719,25.79781297,148,3.03026E+12,ATI Career Training Center, ,7265 NW 25TH ST, ,Miami,33122,305-591-3060,T,0,Enrollment,25.79781,-80.31462,881665.7249,532790.8409,abreui
-80.30911514,25.6366021,149,3.35023E+12,Montessori Teacher Training Institute, ,14400 Old Cutler Road,    ,Miami,33158,305-282-3294,C,0,Enrollment,25.6366,-80.30911,883785.9284,474206.9543,abreui
-80.3048554,25.86578058,150,4.3001E+11,Beauty Schools of America,Hialeah - Main Campus,1060 W 49TH ST,    ,Hialeah,33012,305-362-9003,T,0,Enrollment,25.86578,-80.30485,884750.2871,557511.4582,abreui
-80.19273841,25.85220146,151,1.3207E+11,Traveling Angels Security Academy, ,8365 NE 2ND AVE,    ,Miami,33138,305-218-1878,T,0,Enrollment,25.8522,-80.19274,921649.1848,552786.7393,abreui
-80.36408309,25.68637043,152,3.05005E+12,Acupuncture and Massage College, ,10506 N KENDALL DR,    ,Miami,33176,305-595-9500,T,0,Enrollment,25.68637,-80.36408,865588.8058,492204.6577,abreui
-80.38429538,25.79490013,153,2.53031E+12,Keiser University, ,2101 NW 117TH AVE,    ,Miami,33172,305-596-2226,U,850,Enrollment,25.7949,-80.38429,858748.1965,531618.8737,abreui
-80.29775344,25.93306968,154,3.02012E+12,Southeastern College,       ,17395 NW 59TH AVE,    ,Miami Lakes,33015,305-820-5003,C,415,Enrollment,25.93306,-80.29775,886954.7394,581981.2791,abreui
-80.39152255,25.68917211,155,3.04936E+12,Nova Southeastern University - NSU,Kendall,8585 SW 124TH AVE,   ,Miami,33183,305-275-2601,U,450,Enrollment,25.68917,-80.39152,856547.4915,493180.3984,abreui
-80.31643418,25.68354931,156,3.05002E+12,City College, ,9300 S DADELAND  BLVD,Suite 200,Miami,33156,305-666-9242,C,0,      ,25.68354,-80.31643,881286.3751,491257.6254,abreui
-80.33743692,25.76859382,157,3.04004E+12,DeVry University,  ,8700 W FLAGLER ST ,Suite 100,Miami,33174,305-229-4833,U,0,Enrollment,25.76859,-80.33743,874214.1844,522132.4325,abreui
-80.32167305,25.8609301,158,4.30022E+11,Florida National College (20th Ave),Online Learning,4425 W 20TH AVE, ,Hialeah,33012,305-821-3333,C,2400,Enrollment,25.86093,-80.32167,879229.1253,555719.5621,abreui
-80.30273119,25.77035937,159,1.4001E+11,Active Health Review Training, ,6520 W FLAGLER ST, ,Miami,33144,305-648-3293,T,0,Enrollment,25.77035,-80.30273,885632.6328,522833.0684,abreui
-80.42741891,25.65627418,160,3.0591E+12,G-Force Protective Service, ,14331 SW 120TH ST,    ,Miami,33186,786-214-6562,T,0,Enrollment,25.65627,-80.42742,844777.8459,481170.8102,abreui
-80.27486415,25.82990464,161,4.3118E+11,La Esperanza Training Center, ,330 E 9TH ST,    ,Hialeah,33010,786-347-7711,T,0,Enrollment,25.8299,-80.27486,894684.513,544525.1053,abreui
-80.35771846,25.58976378,162,3.66005E+12,CBT College - Cutler Bay Campus,Cutler Bay Campus,19151 S DIXIE HWY,    ,Cutler Bay,33157,305-273-4499,C,0,         ,25.58976,-80.35772,867855.1841,457102.9348,abreui
-80.20443966,25.94402858,163,3.42101E+12,"Nursing Unlimited, inc",Headquarters,18405 NW 2ND AVE,    ,Miami Gardens,33169,305-651-1431,T,0,Enrollment,25.94402,-80.20444,917598.4481,586139.8711,abreui
-80.13231021,25.79043062,164,2.3234E+11,Florida International University Miami Beach,Miami Beach Urban Studios,420 LINCOLN RD,Suite 440,Miami Beach,33139,305-348-7500,U,0,Enrollment,25.79043,-80.13231,941671.0423,530461.412,abreui
-80.44625181,25.47587564,165,1.07917E+12,Beauty Schools of America,Homestead Campus,600 NE 22ND TER,Suite 108,Homestead,33030,305-231-2302,T,0,Enrollment,25.47587,-80.44625,838847.568,415579.5507,abreui
-80.21153484,25.91567334,166,3.02113E+12,Greencross School of Nursing, ,15383 NW 7TH AVE,    ,Miami,33169,305-687-7718,T,0,Enrollment,25.91567,-80.21153,915328.8148,575819.3955,abreui
-80.33960989,25.7918181,167,3.53033E+12,Miami Anatomical Research Center, ,8850 NW 20TH ST,    ,Doral,33172,305-716-0966,T,0,Enrollment,25.79181,-80.33961,873456.7326,530569.9286,abreui
-80.29629738,25.92266068,168,3.22013E+12,Dade Medical College - Miami Lakes,Miami Lakes Campus,5875 NW 163RD ST,    ,Miami Lakes,33014,786-363-3340 ,C,0,Enrollment,25.92266,-80.29629,887453.5933,578200.5022,abreui
-80.25876841,25.78097642,169,1.3132E+11,Dade Medical College - Miami Campus,Miami Campus,3721 NW 7TH ST,    ,Miami,33126,786-363-4910,C,0,Enrollment,25.78097,-80.25877,900079.1782,526770.9439,abreui
-80.42179149,25.64691736,170,3.05915E+12,Dean International Flight School, ,14150 SW 129TH ST,    ,Miami,33186,305-259-5611,T,0,Enrollment,25.64691,-80.42179,846646.4352,477778.1402,abreui
-80.20354259,25.9429476,171,3.42101E+12,Everest Institute - Miami,Miami Campus, 111 NW 183RD ST,Suite 200,Miami,33169,305-949-9500,C,0,Enrollment,25.94294,-80.20354,917895.6354,585748.7531,abreui
-80.21206271,25.82510231,172,1.31141E+11,Exceptional Development Corp of South Florida, ,991 NW 54TH ST,    ,Miami,33127,305-758-9910,T,0,Enrollment,25.8251,-80.21206,915352.8502,542898.4618,abreui
-80.32624615,25.80858464,173,3.53027E+12,Florida Medical Training Institute, ,7902 NW 36TH ST,Suite 215,Doral,33166,305-715-0377,C,0,Enrollment,25.80858,-80.32624,877822.7596,536686.1935,abreui
-80.25146405,25.76459712,174,1.41091E+11,Future Tech Institute Inc, ,3446 SW 8TH ST,Suite 211,Miami,33135,305-774-0227,C,0,Enrollment,25.76459,-80.25146,902516.6722,520831.2572,abreui
-80.20455302,25.94359695,175,3.42101E+12,Health Opportunity Technical Center Inc, , 18441 NW 2ND AVE,Suite 300,Miami,33169,305-249-2275,T,0,Enrollment,25.94359,-80.20455,917562.1465,585982.7583,abreui
-80.19103991,25.76316842,176,1.021E+11,Inlingua Language Center Brickell Avenue, , 1101 BRICKELL AVE,Suite 400,Miami,33131,305-579-0096,T,0,Enrollment,25.76316,-80.19104,922406.7167,520429.4701,abreui
-80.27568733,25.72257225,177,3.413E+11,Intensive Language Institute, ,5050 BRUNSON DR,    ,Coral Gables,33146,305-284-4000,C,0,Enrollment,25.72257,-80.27568,894628.2048,505512.3211,abreui
-80.28459355,25.92444899,178,3.42118E+12,CBT College - Miami Gardens Branch,Miami Gardens Branch,5190 NW 167th ST,,Miami Gardens,33014,305-273-4499,,,,25.92444,-80.28459,891296.8675,578871.3225,bincao